CCSDS_OMM_VERS = 2.0
CREATION_DATE  = 
ORIGINATOR     = 

OBJECT_NAME    = UNKNOWN
OBJECT_ID      = 
CENTER_NAME    = EARTH
REF_FRAME      = TEME
TIME_SYSTEM    = UTC
MEAN_ELEMENT_THEORY = SGP/SGP4

EPOCH          = 2026-01-28T16:22:52.704480
MEAN_MOTION    = 14.40092266
ECCENTRICITY   = .0019469
INCLINATION    = 74.0253
RA_OF_ASC_NODE = 16.0833
ARG_OF_PERICENTER = 38.0722
MEAN_ANOMALY   = 322.1804

EPHEMERIS_TYPE = 0
CLASSIFICATION_TYPE = U
NORAD_CAT_ID   = 87587
ELEMENT_SET_NO = 999
REV_AT_EPOCH   = 64056
BSTAR          = .15144E-3
MEAN_MOTION_DOT = .452E-5
MEAN_MOTION_DDOT = 0

CCSDS_OMM_VERS = 2.0
CREATION_DATE  = 
ORIGINATOR     = 

OBJECT_NAME    = UNKNOWN
OBJECT_ID      = 
CENTER_NAME    = EARTH
REF_FRAME      = TEME
TIME_SYSTEM    = UTC
MEAN_ELEMENT_THEORY = SGP/SGP4

EPOCH          = 2026-02-24T01:42:41.727456
MEAN_MOTION    = 14.10435975
ECCENTRICITY   = .0027555
INCLINATION    = 98.7791
RA_OF_ASC_NODE = 95.4985
ARG_OF_PERICENTER = 77.8196
MEAN_ANOMALY   = 313.6601

EPHEMERIS_TYPE = 0
CLASSIFICATION_TYPE = U
NORAD_CAT_ID   = 87590
ELEMENT_SET_NO = 999
REV_AT_EPOCH   = 16458
BSTAR          = .2678E-3
MEAN_MOTION_DOT = .435E-5
MEAN_MOTION_DDOT = 0

CCSDS_OMM_VERS = 2.0
CREATION_DATE  = 
ORIGINATOR     = 

OBJECT_NAME    = UNKNOWN
OBJECT_ID      = 
CENTER_NAME    = EARTH
REF_FRAME      = TEME
TIME_SYSTEM    = UTC
MEAN_ELEMENT_THEORY = SGP/SGP4

EPOCH          = 2026-02-24T07:06:03.625920
MEAN_MOTION    = 12.46950698
ECCENTRICITY   = .0625303
INCLINATION    = 66.0371
RA_OF_ASC_NODE = 3.9217
ARG_OF_PERICENTER = 107.2098
MEAN_ANOMALY   = 40.2493

EPHEMERIS_TYPE = 0
CLASSIFICATION_TYPE = U
NORAD_CAT_ID   = 87616
ELEMENT_SET_NO = 999
REV_AT_EPOCH   = 54540
BSTAR          = .40355E-2
MEAN_MOTION_DOT = .1136E-4
MEAN_MOTION_DDOT = 0

CCSDS_OMM_VERS = 2.0
CREATION_DATE  = 
ORIGINATOR     = 

OBJECT_NAME    = UNKNOWN
OBJECT_ID      = 
CENTER_NAME    = EARTH
REF_FRAME      = TEME
TIME_SYSTEM    = UTC
MEAN_ELEMENT_THEORY = SGP/SGP4

EPOCH          = 2026-02-24T01:41:46.630176
MEAN_MOTION    = 14.70984494
ECCENTRICITY   = .0097533
INCLINATION    = 98.6876
RA_OF_ASC_NODE = 2.2498
ARG_OF_PERICENTER = 19.8566
MEAN_ANOMALY   = 340.6394

EPHEMERIS_TYPE = 0
CLASSIFICATION_TYPE = U
NORAD_CAT_ID   = 87624
ELEMENT_SET_NO = 999
REV_AT_EPOCH   = 59105
BSTAR          = .11971E-2
MEAN_MOTION_DOT = .7852E-4
MEAN_MOTION_DDOT = 0

CCSDS_OMM_VERS = 2.0
CREATION_DATE  = 
ORIGINATOR     = 

OBJECT_NAME    = UNKNOWN
OBJECT_ID      = 
CENTER_NAME    = EARTH
REF_FRAME      = TEME
TIME_SYSTEM    = UTC
MEAN_ELEMENT_THEORY = SGP/SGP4

EPOCH          = 2026-02-08T08:21:58.574304
MEAN_MOTION    = 14.63453892
ECCENTRICITY   = .0030195
INCLINATION    = 100.2708
RA_OF_ASC_NODE = 233.5291
ARG_OF_PERICENTER = 112.3966
MEAN_ANOMALY   = 248.0433

EPHEMERIS_TYPE = 0
CLASSIFICATION_TYPE = U
NORAD_CAT_ID   = 87650
ELEMENT_SET_NO = 999
REV_AT_EPOCH   = 8818
BSTAR          = .25279E-2
MEAN_MOTION_DOT = .13131E-3
MEAN_MOTION_DDOT = 0

CCSDS_OMM_VERS = 2.0
CREATION_DATE  = 
ORIGINATOR     = 

OBJECT_NAME    = UNKNOWN
OBJECT_ID      = 
CENTER_NAME    = EARTH
REF_FRAME      = TEME
TIME_SYSTEM    = UTC
MEAN_ELEMENT_THEORY = SGP/SGP4

EPOCH          = 2026-02-19T20:17:23.680608
MEAN_MOTION    = 14.28205966
ECCENTRICITY   = .0057955
INCLINATION    = 70.8550
RA_OF_ASC_NODE = 217.3214
ARG_OF_PERICENTER = 169.5688
MEAN_ANOMALY   = 190.6659

EPHEMERIS_TYPE = 0
CLASSIFICATION_TYPE = U
NORAD_CAT_ID   = 87672
ELEMENT_SET_NO = 999
REV_AT_EPOCH   = 63432
BSTAR          = .81414E-3
MEAN_MOTION_DOT = .2016E-4
MEAN_MOTION_DDOT = 0

CCSDS_OMM_VERS = 2.0
CREATION_DATE  = 
ORIGINATOR     = 

OBJECT_NAME    = UNKNOWN
OBJECT_ID      = 
CENTER_NAME    = EARTH
REF_FRAME      = TEME
TIME_SYSTEM    = UTC
MEAN_ELEMENT_THEORY = SGP/SGP4

EPOCH          = 2026-02-20T01:53:25.234656
MEAN_MOTION    = 13.71286161
ECCENTRICITY   = .0149518
INCLINATION    = 66.7374
RA_OF_ASC_NODE = 294.4219
ARG_OF_PERICENTER = 114.9857
MEAN_ANOMALY   = 246.6825

EPHEMERIS_TYPE = 0
CLASSIFICATION_TYPE = U
NORAD_CAT_ID   = 87681
ELEMENT_SET_NO = 999
REV_AT_EPOCH   = 61134
BSTAR          = .10741E-2
MEAN_MOTION_DOT = .971E-5
MEAN_MOTION_DDOT = 0

CCSDS_OMM_VERS = 2.0
CREATION_DATE  = 
ORIGINATOR     = 

OBJECT_NAME    = UNKNOWN
OBJECT_ID      = 
CENTER_NAME    = EARTH
REF_FRAME      = TEME
TIME_SYSTEM    = UTC
MEAN_ELEMENT_THEORY = SGP/SGP4

EPOCH          = 2026-02-24T00:31:37.430400
MEAN_MOTION    = 14.01376249
ECCENTRICITY   = .0581341
INCLINATION    = 65.7934
RA_OF_ASC_NODE = 163.3264
ARG_OF_PERICENTER = 9.9263
MEAN_ANOMALY   = 351.2725

EPHEMERIS_TYPE = 0
CLASSIFICATION_TYPE = U
NORAD_CAT_ID   = 87690
ELEMENT_SET_NO = 999
REV_AT_EPOCH   = 61764
BSTAR          = .48473E-3
MEAN_MOTION_DOT = .3253E-4
MEAN_MOTION_DDOT = 0

CCSDS_OMM_VERS = 2.0
CREATION_DATE  = 
ORIGINATOR     = 

OBJECT_NAME    = UNKNOWN
OBJECT_ID      = 
CENTER_NAME    = EARTH
REF_FRAME      = TEME
TIME_SYSTEM    = UTC
MEAN_ELEMENT_THEORY = SGP/SGP4

EPOCH          = 2026-02-24T00:11:34.681920
MEAN_MOTION    = 14.65210954
ECCENTRICITY   = .0104253
INCLINATION    = 98.6759
RA_OF_ASC_NODE = 247.5685
ARG_OF_PERICENTER = 40.8540
MEAN_ANOMALY   = 111.2943

EPHEMERIS_TYPE = 0
CLASSIFICATION_TYPE = U
NORAD_CAT_ID   = 87706
ELEMENT_SET_NO = 999
REV_AT_EPOCH   = 58924
BSTAR          = .56428E-3
MEAN_MOTION_DOT = .3233E-4
MEAN_MOTION_DDOT = 0

CCSDS_OMM_VERS = 2.0
CREATION_DATE  = 
ORIGINATOR     = 

OBJECT_NAME    = UNKNOWN
OBJECT_ID      = 
CENTER_NAME    = EARTH
REF_FRAME      = TEME
TIME_SYSTEM    = UTC
MEAN_ELEMENT_THEORY = SGP/SGP4

EPOCH          = 2026-02-24T02:42:16.081632
MEAN_MOTION    = 15.07088605
ECCENTRICITY   = .0011084
INCLINATION    = 82.8658
RA_OF_ASC_NODE = 188.4272
ARG_OF_PERICENTER = 197.6972
MEAN_ANOMALY   = 162.3872

EPHEMERIS_TYPE = 0
CLASSIFICATION_TYPE = U
NORAD_CAT_ID   = 87725
ELEMENT_SET_NO = 999
REV_AT_EPOCH   = 64493
BSTAR          = .4539E-2
MEAN_MOTION_DOT = .68792E-3
MEAN_MOTION_DDOT = 0

CCSDS_OMM_VERS = 2.0
CREATION_DATE  = 
ORIGINATOR     = 

OBJECT_NAME    = UNKNOWN
OBJECT_ID      = 
CENTER_NAME    = EARTH
REF_FRAME      = TEME
TIME_SYSTEM    = UTC
MEAN_ELEMENT_THEORY = SGP/SGP4

EPOCH          = 2026-02-20T02:35:37.351680
MEAN_MOTION    = 13.74518887
ECCENTRICITY   = .0030454
INCLINATION    = 82.9474
RA_OF_ASC_NODE = 182.7805
ARG_OF_PERICENTER = 168.2704
MEAN_ANOMALY   = 191.9168

EPHEMERIS_TYPE = 0
CLASSIFICATION_TYPE = U
NORAD_CAT_ID   = 87730
ELEMENT_SET_NO = 999
REV_AT_EPOCH   = 59486
BSTAR          = .80311E-4
MEAN_MOTION_DOT = .92E-6
MEAN_MOTION_DDOT = 0

CCSDS_OMM_VERS = 2.0
CREATION_DATE  = 
ORIGINATOR     = 

OBJECT_NAME    = UNKNOWN
OBJECT_ID      = 
CENTER_NAME    = EARTH
REF_FRAME      = TEME
TIME_SYSTEM    = UTC
MEAN_ELEMENT_THEORY = SGP/SGP4

EPOCH          = 2026-02-24T09:51:33.960672
MEAN_MOTION    = 13.72354927
ECCENTRICITY   = .0133279
INCLINATION    = 99.3674
RA_OF_ASC_NODE = 290.5838
ARG_OF_PERICENTER = 358.0552
MEAN_ANOMALY   = 2.0062

EPHEMERIS_TYPE = 0
CLASSIFICATION_TYPE = U
NORAD_CAT_ID   = 87737
ELEMENT_SET_NO = 999
REV_AT_EPOCH   = 61396
BSTAR          = .67769E-4
MEAN_MOTION_DOT = .22E-6
MEAN_MOTION_DDOT = 0

