UNKNOWN                 
1 87587U          26028.68255445  .00000452  00000+0  15144-3 0  9990
2 87587  74.0253  16.0833 0019469  38.0722 322.1804 14.40092266640565
UNKNOWN                 
1 87590U          26055.07131629  .00000435  00000+0  26780-3 0  9993
2 87590  98.7791  95.4985 0027555  77.8196 313.6601 14.10435975164587
UNKNOWN                 
1 87616U          26055.29587530  .00001136  00000+0  40355-2 0  9994
2 87616  66.0371   3.9217 0625303 107.2098  40.2493 12.46950698545401
UNKNOWN                 
1 87624U          26055.07067859  .00007852  00000+0  11971-2 0  9999
2 87624  98.6876   2.2498 0097533  19.8566 340.6394 14.70984494591059
UNKNOWN                 
1 87650U          26039.34859461  .00013131  00000+0  25279-2 0  9991
2 87650 100.2708 233.5291 0030195 112.3966 248.0433 14.63453892 88181
UNKNOWN                 
1 87672U          26050.84541297  .00002016  00000+0  81414-3 0  9992
2 87672  70.8550 217.3214 0057955 169.5688 190.6659 14.28205966634328
UNKNOWN                 
1 87681U          26051.07876429  .00000971  00000+0  10741-2 0  9998
2 87681  66.7374 294.4219 0149518 114.9857 246.6825 13.71286161611343
UNKNOWN                 
1 87690U          26055.02196100  .00003253  00000+0  48473-3 0  9998
2 87690  65.7934 163.3264 0581341   9.9263 351.2725 14.01376249617648
UNKNOWN                 
1 87706U          26055.00804030  .00003233  00000+0  56428-3 0  9999
2 87706  98.6759 247.5685 0104253  40.8540 111.2943 14.65210954589243
UNKNOWN                 
1 87725U          26055.11268613  .00068792  00000+0  45390-2 0  9999
2 87725  82.8658 188.4272 0011084 197.6972 162.3872 15.07088605644930
UNKNOWN                 
1 87730U          26051.10807120  .00000092  00000+0  80311-4 0  9995
2 87730  82.9474 182.7805 0030454 168.2704 191.9168 13.74518887594865
UNKNOWN                 
1 87737U          26055.41080973  .00000022  00000+0  67769-4 0  9994
2 87737  99.3674 290.5838 0133279 358.0552   2.0062 13.72354927613968
